{
  "type": "FeatureCollection",
  "features": [
    {
      "type": "Feature",
      "properties": {
        "norad_id": 41890,
        "name": "CYGFM07",
        "group": "weather",
        "lat": -33.002868619262564,
        "lon": 3.8585522377029244,
        "alt_km": 424.99829115993543,
        "timestamp": "2025-12-04T23:34:05.374242+00:00",
        "meta_object_name": "CYGFM07",
        "meta_object_id": "2016-078G",
        "meta_epoch": "2025-12-04T16:08:49.615008",
        "meta_mean_motion": 15.49510261,
        "meta_eccentricity": 0.0009042,
        "meta_inclination": 34.9474,
        "meta_ra_of_asc_node": 74.324,
        "meta_arg_of_pericenter": 141.8553,
        "meta_mean_anomaly": 218.281,
        "meta_ephemeris_type": 0,
        "meta_classification_type": "U",
        "meta_norad_cat_id": 41890,
        "meta_element_set_no": 999,
        "meta_rev_at_epoch": 49870,
        "meta_bstar": 0.00068841,
        "meta_mean_motion_dot": 0.00039321,
        "meta_mean_motion_ddot": 0,
        "tle_line1": "1 41890U 16078G   25338.67279647  .00039321  00000+0  68841-3 0  9990",
        "tle_line2": "2 41890  34.9474  74.3240 0009042 141.8553 218.2810 15.49510261498701"
      },
      "geometry": {
        "type": "Point",
        "coordinates": [
          3.8585522377029244,
          -33.002868619262564
        ]
      }
    },
    {
      "type": "Feature",
      "properties": {
        "norad_id": 41891,
        "name": "CYGFM03",
        "group": "weather",
        "lat": 27.810421636260482,
        "lon": -154.85179025755988,
        "alt_km": 407.43332971876043,
        "timestamp": "2025-12-04T23:34:05.374254+00:00",
        "meta_object_name": "CYGFM03",
        "meta_object_id": "2016-078H",
        "meta_epoch": "2025-12-04T15:17:54.461760",
        "meta_mean_motion": 15.4941283,
        "meta_eccentricity": 0.0008335,
        "meta_inclination": 34.9433,
        "meta_ra_of_asc_node": 76.4691,
        "meta_arg_of_pericenter": 128.1417,
        "meta_mean_anomaly": 232.0057,
        "meta_ephemeris_type": 0,
        "meta_classification_type": "U",
        "meta_norad_cat_id": 41891,
        "meta_element_set_no": 999,
        "meta_rev_at_epoch": 49867,
        "meta_bstar": 0.00071886,
        "meta_mean_motion_dot": 0.0004092,
        "meta_mean_motion_ddot": 0,
        "tle_line1": "1 41891U 16078H   25338.63743590  .00040920  00000+0  71886-3 0  9990",
        "tle_line2": "2 41891  34.9433  76.4691 0008335 128.1417 232.0057 15.49412830498677"
      },
      "geometry": {
        "type": "Point",
        "coordinates": [
          -154.85179025755988,
          27.810421636260482
        ]
      }
    },
    {
      "type": "Feature",
      "properties": {
        "norad_id": 43010,
        "name": "FENGYUN 3D",
        "group": "weather",
        "lat": -18.793931719601918,
        "lon": -51.735968165702296,
        "alt_km": 831.7279459173433,
        "timestamp": "2025-12-04T23:34:05.374266+00:00",
        "meta_object_name": "FENGYUN 3D",
        "meta_object_id": "2017-072A",
        "meta_epoch": "2025-12-04T18:34:59.615904",
        "meta_mean_motion": 14.19680329,
        "meta_eccentricity": 6.55e-05,
        "meta_inclination": 98.9882,
        "meta_ra_of_asc_node": 304.9657,
        "meta_arg_of_pericenter": 212.9298,
        "meta_mean_anomaly": 147.1836,
        "meta_ephemeris_type": 0,
        "meta_classification_type": "U",
        "meta_norad_cat_id": 43010,
        "meta_element_set_no": 999,
        "meta_rev_at_epoch": 41740,
        "meta_bstar": 0.00012673,
        "meta_mean_motion_dot": 2.22e-06,
        "meta_mean_motion_ddot": 0,
        "tle_line1": "1 43010U 17072A   25338.77430111  .00000222  00000+0  12673-3 0  9997",
        "tle_line2": "2 43010  98.9882 304.9657 0000655 212.9298 147.1836 14.19680329417406"
      },
      "geometry": {
        "type": "Point",
        "coordinates": [
          -51.735968165702296,
          -18.793931719601918
        ]
      }
    },
    {
      "type": "Feature",
      "properties": {
        "norad_id": 43013,
        "name": "NOAA 20 (JPSS-1)",
        "group": "weather",
        "lat": 41.333185950568726,
        "lon": 103.15717955947024,
        "alt_km": 822.4630385388245,
        "timestamp": "2025-12-04T23:34:05.374277+00:00",
        "meta_object_name": "NOAA 20 (JPSS-1)",
        "meta_object_id": "2017-073A",
        "meta_epoch": "2025-12-04T16:09:13.834656",
        "meta_mean_motion": 14.19522464,
        "meta_eccentricity": 0.0002081,
        "meta_inclination": 98.7587,
        "meta_ra_of_asc_node": 275.0585,
        "meta_arg_of_pericenter": 98.6657,
        "meta_mean_anomaly": 261.4755,
        "meta_ephemeris_type": 0,
        "meta_classification_type": "U",
        "meta_norad_cat_id": 43013,
        "meta_element_set_no": 999,
        "meta_rev_at_epoch": 41687,
        "meta_bstar": 0.0001113,
        "meta_mean_motion_dot": 1.91e-06,
        "meta_mean_motion_ddot": 0,
        "tle_line1": "1 43013U 17073A   25338.67307679  .00000191  00000+0  11130-3 0  9994",
        "tle_line2": "2 43013  98.7587 275.0585 0002081  98.6657 261.4755 14.19522464416875"
      },
      "geometry": {
        "type": "Point",
        "coordinates": [
          103.15717955947024,
          41.333185950568726
        ]
      }
    },
    {
      "type": "Feature",
      "properties": {
        "norad_id": 43226,
        "name": "GOES 17",
        "group": "weather",
        "lat": -0.40291031511819525,
        "lon": -21.912300405982457,
        "alt_km": 35780.49933212293,
        "timestamp": "2025-12-04T23:34:05.374289+00:00",
        "meta_object_name": "GOES 17",
        "meta_object_id": "2018-022A",
        "meta_epoch": "2025-12-04T13:17:59.563104",
        "meta_mean_motion": 1.0027116,
        "meta_eccentricity": 0.0003475,
        "meta_inclination": 0.4372,
        "meta_ra_of_asc_node": 89.2939,
        "meta_arg_of_pericenter": 182.3294,
        "meta_mean_anomaly": 272.0015,
        "meta_ephemeris_type": 0,
        "meta_classification_type": "U",
        "meta_norad_cat_id": 43226,
        "meta_element_set_no": 999,
        "meta_rev_at_epoch": 2847,
        "meta_bstar": 0,
        "meta_mean_motion_dot": -1.68e-06,
        "meta_mean_motion_ddot": 0,
        "tle_line1": "1 43226U 18022A   25338.55416161 -.00000168  00000+0  00000+0 0  9994",
        "tle_line2": "2 43226   0.4372  89.2939 0003475 182.3294 272.0015  1.00271160 28479"
      },
      "geometry": {
        "type": "Point",
        "coordinates": [
          -21.912300405982457,
          -0.40291031511819525
        ]
      }
    },
    {
      "type": "Feature",
      "properties": {
        "norad_id": 43491,
        "name": "FENGYUN 2H",
        "group": "weather",
        "lat": 2.303059992810076,
        "lon": 146.85982701205765,
        "alt_km": 35787.70303516979,
        "timestamp": "2025-12-04T23:34:05.374308+00:00",
        "meta_object_name": "FENGYUN 2H",
        "meta_object_id": "2018-050A",
        "meta_epoch": "2025-12-04T17:31:42.759264",
        "meta_mean_motion": 1.00271307,
        "meta_eccentricity": 0.0002941,
        "meta_inclination": 2.5288,
        "meta_ra_of_asc_node": 81.4192,
        "meta_arg_of_pericenter": 163.5881,
        "meta_mean_anomaly": 171.0799,
        "meta_ephemeris_type": 0,
        "meta_classification_type": "U",
        "meta_norad_cat_id": 43491,
        "meta_element_set_no": 999,
        "meta_rev_at_epoch": 2748,
        "meta_bstar": 0,
        "meta_mean_motion_dot": -1.17e-06,
        "meta_mean_motion_ddot": 0,
        "tle_line1": "1 43491U 18050A   25338.73035601 -.00000117  00000+0  00000+0 0  9999",
        "tle_line2": "2 43491   2.5288  81.4192 0002941 163.5881 171.0799  1.00271307 27487"
      },
      "geometry": {
        "type": "Point",
        "coordinates": [
          146.85982701205765,
          2.303059992810076
        ]
      }
    },
    {
      "type": "Feature",
      "properties": {
        "norad_id": 43689,
        "name": "METOP-C",
        "group": "weather",
        "lat": -43.322832092841956,
        "lon": -151.42718355588272,
        "alt_km": 828.0466695432751,
        "timestamp": "2025-12-04T23:34:05.374320+00:00",
        "meta_object_name": "METOP-C",
        "meta_object_id": "2018-087A",
        "meta_epoch": "2025-12-04T15:45:39.991104",
        "meta_mean_motion": 14.21507247,
        "meta_eccentricity": 0.000166,
        "meta_inclination": 98.6941,
        "meta_ra_of_asc_node": 36.5497,
        "meta_arg_of_pericenter": 55.7257,
        "meta_mean_anomaly": 304.4077,
        "meta_ephemeris_type": 0,
        "meta_classification_type": "U",
        "meta_norad_cat_id": 43689,
        "meta_element_set_no": 999,
        "meta_rev_at_epoch": 36719,
        "meta_bstar": 0.00015568,
        "meta_mean_motion_dot": 2.97e-06,
        "meta_mean_motion_ddot": 0,
        "tle_line1": "1 43689U 18087A   25338.65671286  .00000297  00000+0  15568-3 0  9991",
        "tle_line2": "2 43689  98.6941  36.5497 0001660  55.7257 304.4077 14.21507247367191"
      },
      "geometry": {
        "type": "Point",
        "coordinates": [
          -151.42718355588272,
          -43.322832092841956
        ]
      }
    }
  ]
}